{
    "CCSDS_OMM_VERS": "3.0",
    "COMMENT": "GENERATED VIA SPACE-TRACK.ORG API",
    "CREATION_DATE": "2025-11-22T18:56:57",
    "ORIGINATOR": "18 SPCS",
    "OBJECT_NAME": "BD-2-G7",
    "OBJECT_ID": "2016-037A",
    "CENTER_NAME": "EARTH",
    "REF_FRAME": "TEME",
    "TIME_SYSTEM": "UTC",
    "MEAN_ELEMENT_THEORY": "SGP4",
    "EPOCH": "2025-11-21T15:57:53.536608",
    "MEAN_MOTION": "1.00268968",
    "ECCENTRICITY": "0.00052647",
    "INCLINATION": "1.7034",
    "RA_OF_ASC_NODE": "67.5384",
    "ARG_OF_PERICENTER": "332.6575",
    "MEAN_ANOMALY": "10.7439",
    "EPHEMERIS_TYPE": "0",
    "CLASSIFICATION_TYPE": "U",
    "NORAD_CAT_ID": "41586",
    "ELEMENT_SET_NO": "999",
    "REV_AT_EPOCH": "480",
    "BSTAR": "0.00000000000000",
    "MEAN_MOTION_DOT": "-0.00000332",
    "MEAN_MOTION_DDOT": "0.0000000000000",
    "SEMIMAJOR_AXIS": "42165.522",
    "PERIOD": "1436.137",
    "APOAPSIS": "35809.585",
    "PERIAPSIS": "35765.188",
    "OBJECT_TYPE": "PAYLOAD",
    "RCS_SIZE": "LARGE",
    "COUNTRY_CODE": "PRC",
    "LAUNCH_DATE": "2016-06-12",
    "SITE": "XSC",
    "DECAY_DATE": null,
    "FILE": "4894246",
    "GP_ID": "303253029",
    "TLE_LINE0": "0 BD-2-G7",
    "TLE_LINE1": "1 41586U 16037A   25325.66520297 -.00000332  00000-0  00000-0 0  9994",
    "TLE_LINE2": "2 41586   1.7034  67.5384 0005265 332.6575  10.7439  1.00268968  4809"
}